STARLINK-31623          
1 59272U 24050U   26068.62623957 -.00001356  00000+0 -33687-4 0  9995
2 59272  53.1617 180.9527 0000477  74.7840 285.3213 15.30189981110540
SCS-01 D                
1 63985U 25100D   26068.75607686  .00032471  00000+0  10528-2 0  9990
2 63985  97.3730 145.4097 0006346 266.2302  93.8214 15.31902149 45621
